[{"OBJECT_NAME":"STARLINK-2569","OBJECT_ID":"2021-036B","EPOCH":"2026-03-10T00:00:02.999808","MEAN_MOTION":15.23820477,"ECCENTRICITY":0.00017097,"INCLINATION":53.129,"RA_OF_ASC_NODE":9.5309,"ARG_OF_PERICENTER":96.8785,"MEAN_ANOMALY":250.7742,"EPHEMERIS_TYPE":0,"CLASSIFICATION_TYPE":"U","NORAD_CAT_ID":48277,"ELEMENT_SET_NO":999,"REV_AT_EPOCH":574,"BSTAR":-0.0006504466,"MEAN_MOTION_DOT":-0.00016175,"MEAN_MOTION_DDOT":0},{"OBJECT_NAME":"OBJECT AJ","OBJECT_ID":"2023-085AJ","EPOCH":"2026-03-09T21:40:57.336960","MEAN_MOTION":15.22482723,"ECCENTRICITY":0.0009664,"INCLINATION":97.4789,"RA_OF_ASC_NODE":174.9935,"ARG_OF_PERICENTER":71.8929,"MEAN_ANOMALY":288.3359,"EPHEMERIS_TYPE":0,"CLASSIFICATION_TYPE":"U","NORAD_CAT_ID":57036,"ELEMENT_SET_NO":999,"REV_AT_EPOCH":15122,"BSTAR":0.00051608664,"MEAN_MOTION_DOT":0.00011905,"MEAN_MOTION_DDOT":0}]
